POISK                   
1 36086U 09060A   26169.15704105  .00009674  00000+0  18166-3 0  9995
2 36086  51.6334 295.2921 0004743 200.3344 159.7456 15.49293017571091
SJ-11-01                
1 36088U 09061A   26169.29576475  .00000601  00000+0  12430-3 0  9999
2 36088  98.0051 150.2506 0011703  25.9541  85.0714 14.63690629884659
COSMOS 2455             
1 36095U 09063A   26169.21927480 -.00000008  00000+0  47906-4 0  9996
2 36095  67.1477 250.3894 0003396 266.3641  93.7055 13.97050872845274
INTELSAT 14 (IS-14)     
1 36097U 09064A   26169.17302513 -.00000279  00000+0  00000+0 0  9997
2 36097   0.0134 307.6173 0002302 136.3334 199.7596  1.00272898 60618
EUTELSAT 36B            
1 36101U 09065A   26169.19200523  .00000106  00000+0  00000+0 0  9992
2 36101   0.4948  81.1121 0005837   3.9419 301.0221  1.00274364 60711
INTELSAT 15 (IS-15)     
1 36106U 09067A   26168.91369505 -.00000190  00000+0  00000+0 0  9998
2 36106   0.0144 330.2034 0002084 120.0474 229.9779  1.00270234 41238
WGS F3 (USA 211)        
1 36108U 09068A   26168.72845024  .00000060  00000+0  00000+0 0  9990
2 36108   0.3253  85.7423 0000711 254.1206  58.3557  1.00262204 46595
YAOGAN-7                
1 36110U 09069A   26169.10427917  .00000377  00000+0  59312-4 0  9990
2 36110  98.0071  54.9657 0025523  38.9227 321.3815 14.78010700889761
COSMOS 2456 [GLONASS-M] 
1 36111U 09070A   26167.15434897 -.00000023  00000+0  00000+0 0  9995
2 36111  65.0107  71.0074 0004648 331.0109 212.9328  2.13103754128409
COSMOS 2457 [GLONASS-M] 
1 36112U 09070B   26169.33231891 -.00000027  00000+0  00000+0 0  9991
2 36112  64.9975  70.7771 0002917 122.0762  60.1336  2.13101036128459
YAOGAN-8                
1 36121U 09072A   26169.10891558 -.00000138  00000+0 -29741-3 0  9991
2 36121 100.2179  53.5713 0020740 323.9122  36.0585 13.05083335788791
XIWANG-1 (HOPE-1)       
1 36122U 09072B   26169.30786964  .00000305  00000+0  91457-3 0  9995
2 36122 100.4031 123.1226 0006868 228.8335 131.2186 13.16440161793155
DIRECTV 12              
1 36131U 09075A   26168.66260758 -.00000108  00000+0  00000+0 0  9996
2 36131   0.0147 116.8023 0000258 315.2518 329.6722  1.00267604 46556
BEIDOU-2 G1             
1 36287U 10001A   26168.92461510 -.00000288  00000+0  00000+0 0  9996
2 36287   4.2953  60.4037 0002276 295.7125  23.3830  1.00269983 60170
SDO                     
1 36395U 10005A   26168.41002763 -.00000096  00000+0  00000+0 0  9992
2 36395  34.6527  86.3378 0001734  44.0102 180.8312  1.00269958 60061
INTELSAT 16 (IS-16)     
1 36397U 10006A   26169.28559616 -.00000251  00000+0  00000+0 0  9998
2 36397   0.0114 323.6206 0001914 137.5235 191.9878  1.00272532 59660
COSMOS 2460 [GLONASS-M] 
1 36402U 10007C   26164.86672859 -.00000052  00000+0  00000+0 0  9999
2 36402  65.4226 314.5793 0002121 106.9290 251.4243  2.13101719126653
EWS-G2 (GOES 15)        
1 36411U 10008A   26169.20649959  .00000013  00000+0  00000+0 0  9994
2 36411   1.2813  82.8263 0004809  42.3031 279.3564  1.00266109 59640
YAOGAN-9 01A            
1 36413U 10009A   26168.94291033 -.00000055  00000+0  26403-4 0  9990
2 36413  63.3658 356.2632 0537423  21.7641 340.5310 13.45703444800078
YAOGAN-9 01B            
1 36414U 10009B   26168.99701273 -.00000065  00000+0  19155-4 0  9995
2 36414  63.3670 355.7619 0538258  20.9252 341.2916 13.45711068799852
YAOGAN-9 01C            
1 36415U 10009C   26168.99529181 -.00000061  00000+0  21770-4 0  9994
2 36415  63.3667 356.2778 0538944  21.2586 340.9933 13.45712727800016
ECHOSTAR 14             
1 36499U 10010A   26169.30694370 -.00000006  00000+0  00000+0 0  9994
2 36499   0.0482  84.6224 0002347  15.9538 157.5830  1.00269824 46562
CRYOSAT 2               
1 36508U 10013A   26169.32207150  .00000192  00000+0  46842-4 0  9990
2 36508  92.0356 277.5773 0002144  90.0505 270.0948 14.51899551858242
SES-1                   
1 36516U 10016A   26168.94808817 -.00000120  00000+0  00000+0 0  9999
2 36516   0.0113 345.9938 0002541  99.4519  61.0594  1.00271142 59049
COSMOS 2463             
1 36519U 10017A   26169.20516260  .00000055  00000+0  43497-4 0  9999
2 36519  82.9605 248.9579 0037378 126.1460 264.5402 13.71665752808077
ASTRA 3B                
1 36581U 10021A   26169.18663186  .00000130  00000+0  00000+0 0  9992
2 36581   1.4722  83.5449 0004160   6.3830 267.1713  1.00271376 58877
COMSATBW-2              
1 36582U 10021B   26169.11328439  .00000082  00000+0  00000+0 0  9991
2 36582   0.0479  67.5271 0002618  35.1547 217.6520  1.00273035 58968
NAVSTAR 65 (USA 213)    
1 36585U 10022A   26167.52380442  .00000055  00000+0  00000+0 0  9990
2 36585  54.2702 208.5888 0126308  66.1160 340.2016  2.00562332117589
SERVIS 2                
1 36588U 10023A   26169.13949897 -.00000040  00000+0  12330-4 0  9997
2 36588 100.4280 356.8342 0016628 272.8520 202.5760 13.16053443770890
BEIDOU-2 G3             
1 36590U 10024A   26169.12637112 -.00000144  00000+0  00000+0 0  9995
2 36590   4.5184  61.5132 0007734 351.2919 338.7568  1.00270937 58772
BADR-5                  
1 36592U 10025A   26169.18801854  .00000148  00000+0  00000+0 0  9993
2 36592   0.0565 122.3347 0003879  70.1782 172.0656  1.00272537 53223
